[{"OBJECT_NAME":"STARLINK-35919","OBJECT_ID":"2025-283L","EPOCH":"2026-03-09T04:03:30.667680","MEAN_MOTION":15.30185332,"ECCENTRICITY":0.00012465,"INCLINATION":53.1608,"RA_OF_ASC_NODE":26.6427,"ARG_OF_PERICENTER":77.0606,"MEAN_ANOMALY":283.0534,"EPHEMERIS_TYPE":0,"CLASSIFICATION_TYPE":"U","NORAD_CAT_ID":66888,"ELEMENT_SET_NO":999,"REV_AT_EPOCH":1576,"BSTAR":0.001416911,"MEAN_MOTION_DOT":0.00041823,"MEAN_MOTION_DDOT":0},{"OBJECT_NAME":"CZ-4C DEB","OBJECT_ID":"2015-069C","EPOCH":"2026-03-07T10:00:21.558816","MEAN_MOTION":15.31048021,"ECCENTRICITY":0.00583916,"INCLINATION":97.4862,"RA_OF_ASC_NODE":135.8649,"ARG_OF_PERICENTER":162.5456,"MEAN_ANOMALY":197.781,"EPHEMERIS_TYPE":0,"CLASSIFICATION_TYPE":"U","NORAD_CAT_ID":42670,"ELEMENT_SET_NO":999,"REV_AT_EPOCH":51749,"BSTAR":0.00045809658,"MEAN_MOTION_DOT":0.00014416,"MEAN_MOTION_DDOT":0}]
